CCSDS_OMM_VERS = 2.0
CREATION_DATE  = 
ORIGINATOR     = 

OBJECT_NAME    = STARLINK-35803
OBJECT_ID      = 2025-268M
CENTER_NAME    = EARTH
REF_FRAME      = TEME
TIME_SYSTEM    = UTC
MEAN_ELEMENT_THEORY = SGP/SGP4

EPOCH          = 2025-12-23T04:00:01.998720
MEAN_MOTION    = 15.56544265
ECCENTRICITY   = .0001145
INCLINATION    = 42.9999
RA_OF_ASC_NODE = 60.0668
ARG_OF_PERICENTER = 276.5254
MEAN_ANOMALY   = 199.1547

EPHEMERIS_TYPE = 0
CLASSIFICATION_TYPE = U
NORAD_CAT_ID   = 66568
ELEMENT_SET_NO = 999
REV_AT_EPOCH   = 608
BSTAR          = -.42149E-2
MEAN_MOTION_DOT = -.296478E-2
MEAN_MOTION_DDOT = 0

CCSDS_OMM_VERS = 2.0
CREATION_DATE  = 
ORIGINATOR     = 

OBJECT_NAME    = STARLINK-35835
OBJECT_ID      = 2025-268N
CENTER_NAME    = EARTH
REF_FRAME      = TEME
TIME_SYSTEM    = UTC
MEAN_ELEMENT_THEORY = SGP/SGP4

EPOCH          = 2025-12-23T04:00:01.998720
MEAN_MOTION    = 15.56465703
ECCENTRICITY   = .0001479
INCLINATION    = 43.0003
RA_OF_ASC_NODE = 60.0063
ARG_OF_PERICENTER = 273.9993
MEAN_ANOMALY   = 226.6650

EPHEMERIS_TYPE = 0
CLASSIFICATION_TYPE = U
NORAD_CAT_ID   = 66569
ELEMENT_SET_NO = 999
REV_AT_EPOCH   = 608
BSTAR          = -.14544E-2
MEAN_MOTION_DOT = -.10471E-2
MEAN_MOTION_DDOT = 0

CCSDS_OMM_VERS = 2.0
CREATION_DATE  = 
ORIGINATOR     = 

OBJECT_NAME    = STARLINK-35834
OBJECT_ID      = 2025-268P
CENTER_NAME    = EARTH
REF_FRAME      = TEME
TIME_SYSTEM    = UTC
MEAN_ELEMENT_THEORY = SGP/SGP4

EPOCH          = 2025-12-23T04:00:01.998720
MEAN_MOTION    = 15.48022159
ECCENTRICITY   = .0001233
INCLINATION    = 42.9998
RA_OF_ASC_NODE = 60.0697
ARG_OF_PERICENTER = 275.4849
MEAN_ANOMALY   = 199.0131

EPHEMERIS_TYPE = 0
CLASSIFICATION_TYPE = U
NORAD_CAT_ID   = 66570
ELEMENT_SET_NO = 999
REV_AT_EPOCH   = 608
BSTAR          = -.42633E-1
MEAN_MOTION_DOT = -.2035428E-1
MEAN_MOTION_DDOT = 0

CCSDS_OMM_VERS = 2.0
CREATION_DATE  = 
ORIGINATOR     = 

OBJECT_NAME    = STARLINK-35836
OBJECT_ID      = 2025-268Q
CENTER_NAME    = EARTH
REF_FRAME      = TEME
TIME_SYSTEM    = UTC
MEAN_ELEMENT_THEORY = SGP/SGP4

EPOCH          = 2025-12-23T04:00:01.998720
MEAN_MOTION    = 15.48859436
ECCENTRICITY   = .0001309
INCLINATION    = 43.0000
RA_OF_ASC_NODE = 60.0524
ARG_OF_PERICENTER = 279.3165
MEAN_ANOMALY   = 202.4305

EPHEMERIS_TYPE = 0
CLASSIFICATION_TYPE = U
NORAD_CAT_ID   = 66571
ELEMENT_SET_NO = 999
REV_AT_EPOCH   = 608
BSTAR          = -.41319E-1
MEAN_MOTION_DOT = -.2032432E-1
MEAN_MOTION_DDOT = 0

CCSDS_OMM_VERS = 2.0
CREATION_DATE  = 
ORIGINATOR     = 

OBJECT_NAME    = STARLINK-35870
OBJECT_ID      = 2025-268R
CENTER_NAME    = EARTH
REF_FRAME      = TEME
TIME_SYSTEM    = UTC
MEAN_ELEMENT_THEORY = SGP/SGP4

EPOCH          = 2025-12-23T04:00:01.998720
MEAN_MOTION    = 15.50309371
ECCENTRICITY   = .0001183
INCLINATION    = 43.0002
RA_OF_ASC_NODE = 60.0296
ARG_OF_PERICENTER = 279.2736
MEAN_ANOMALY   = 212.3087

EPHEMERIS_TYPE = 0
CLASSIFICATION_TYPE = U
NORAD_CAT_ID   = 66572
ELEMENT_SET_NO = 999
REV_AT_EPOCH   = 608
BSTAR          = -.39259E-1
MEAN_MOTION_DOT = -.2033455E-1
MEAN_MOTION_DDOT = 0

CCSDS_OMM_VERS = 2.0
CREATION_DATE  = 
ORIGINATOR     = 

OBJECT_NAME    = STARLINK-35650
OBJECT_ID      = 2025-268S
CENTER_NAME    = EARTH
REF_FRAME      = TEME
TIME_SYSTEM    = UTC
MEAN_ELEMENT_THEORY = SGP/SGP4

EPOCH          = 2025-12-23T04:00:01.998720
MEAN_MOTION    = 15.51133416
ECCENTRICITY   = .0001262
INCLINATION    = 43.0005
RA_OF_ASC_NODE = 60.0152
ARG_OF_PERICENTER = 268.5427
MEAN_ANOMALY   = 228.7669

EPHEMERIS_TYPE = 0
CLASSIFICATION_TYPE = U
NORAD_CAT_ID   = 66573
ELEMENT_SET_NO = 999
REV_AT_EPOCH   = 608
BSTAR          = -.37747E-1
MEAN_MOTION_DOT = -.2016091E-1
MEAN_MOTION_DDOT = 0

CCSDS_OMM_VERS = 2.0
CREATION_DATE  = 
ORIGINATOR     = 

OBJECT_NAME    = STARLINK-35812
OBJECT_ID      = 2025-268T
CENTER_NAME    = EARTH
REF_FRAME      = TEME
TIME_SYSTEM    = UTC
MEAN_ELEMENT_THEORY = SGP/SGP4

EPOCH          = 2025-12-23T04:00:01.998720
MEAN_MOTION    = 15.51991298
ECCENTRICITY   = .0001059
INCLINATION    = 43.0002
RA_OF_ASC_NODE = 60.0023
ARG_OF_PERICENTER = 280.7316
MEAN_ANOMALY   = 221.7260

EPHEMERIS_TYPE = 0
CLASSIFICATION_TYPE = U
NORAD_CAT_ID   = 66574
ELEMENT_SET_NO = 999
REV_AT_EPOCH   = 608
BSTAR          = -.37234E-1
MEAN_MOTION_DOT = -.2047473E-1
MEAN_MOTION_DDOT = 0

CCSDS_OMM_VERS = 2.0
CREATION_DATE  = 
ORIGINATOR     = 

OBJECT_NAME    = STARLINK-35810
OBJECT_ID      = 2025-268U
CENTER_NAME    = EARTH
REF_FRAME      = TEME
TIME_SYSTEM    = UTC
MEAN_ELEMENT_THEORY = SGP/SGP4

EPOCH          = 2025-12-23T04:00:01.998720
MEAN_MOTION    = 15.52845897
ECCENTRICITY   = .0000853
INCLINATION    = 43.0002
RA_OF_ASC_NODE = 59.9893
ARG_OF_PERICENTER = 265.9061
MEAN_ANOMALY   = 241.1482

EPHEMERIS_TYPE = 0
CLASSIFICATION_TYPE = U
NORAD_CAT_ID   = 66575
ELEMENT_SET_NO = 999
REV_AT_EPOCH   = 608
BSTAR          = -.36818E-1
MEAN_MOTION_DOT = -.2083979E-1
MEAN_MOTION_DDOT = 0

CCSDS_OMM_VERS = 2.0
CREATION_DATE  = 
ORIGINATOR     = 

OBJECT_NAME    = STARLINK-35814
OBJECT_ID      = 2025-268V
CENTER_NAME    = EARTH
REF_FRAME      = TEME
TIME_SYSTEM    = UTC
MEAN_ELEMENT_THEORY = SGP/SGP4

EPOCH          = 2025-12-23T04:00:01.998720
MEAN_MOTION    = 15.53680274
ECCENTRICITY   = .0001014
INCLINATION    = 43.0004
RA_OF_ASC_NODE = 59.9796
ARG_OF_PERICENTER = 266.5445
MEAN_ANOMALY   = 244.5460

EPHEMERIS_TYPE = 0
CLASSIFICATION_TYPE = U
NORAD_CAT_ID   = 66576
ELEMENT_SET_NO = 999
REV_AT_EPOCH   = 608
BSTAR          = -.35589E-1
MEAN_MOTION_DOT = -.2077884E-1
MEAN_MOTION_DDOT = 0

CCSDS_OMM_VERS = 2.0
CREATION_DATE  = 
ORIGINATOR     = 

OBJECT_NAME    = STARLINK-35815
OBJECT_ID      = 2025-268W
CENTER_NAME    = EARTH
REF_FRAME      = TEME
TIME_SYSTEM    = UTC
MEAN_ELEMENT_THEORY = SGP/SGP4

EPOCH          = 2025-12-23T04:00:01.998720
MEAN_MOTION    = 15.55133085
ECCENTRICITY   = .0000924
INCLINATION    = 43.0004
RA_OF_ASC_NODE = 59.9691
ARG_OF_PERICENTER = 262.6377
MEAN_ANOMALY   = 252.7121

EPHEMERIS_TYPE = 0
CLASSIFICATION_TYPE = U
NORAD_CAT_ID   = 66577
ELEMENT_SET_NO = 999
REV_AT_EPOCH   = 608
BSTAR          = -.33754E-1
MEAN_MOTION_DOT = -.2079373E-1
MEAN_MOTION_DDOT = 0

CCSDS_OMM_VERS = 2.0
CREATION_DATE  = 
ORIGINATOR     = 

OBJECT_NAME    = STARLINK-35743
OBJECT_ID      = 2025-268X
CENTER_NAME    = EARTH
REF_FRAME      = TEME
TIME_SYSTEM    = UTC
MEAN_ELEMENT_THEORY = SGP/SGP4

EPOCH          = 2025-12-23T04:00:01.998720
MEAN_MOTION    = 15.55981128
ECCENTRICITY   = .0001083
INCLINATION    = 43.0001
RA_OF_ASC_NODE = 59.9634
ARG_OF_PERICENTER = 266.0515
MEAN_ANOMALY   = 251.7829

EPHEMERIS_TYPE = 0
CLASSIFICATION_TYPE = U
NORAD_CAT_ID   = 66578
ELEMENT_SET_NO = 999
REV_AT_EPOCH   = 608
BSTAR          = -.32736E-1
MEAN_MOTION_DOT = -.2081362E-1
MEAN_MOTION_DDOT = 0

CCSDS_OMM_VERS = 2.0
CREATION_DATE  = 
ORIGINATOR     = 

OBJECT_NAME    = STARLINK-35868
OBJECT_ID      = 2025-268Y
CENTER_NAME    = EARTH
REF_FRAME      = TEME
TIME_SYSTEM    = UTC
MEAN_ELEMENT_THEORY = SGP/SGP4

EPOCH          = 2025-12-23T04:00:01.998720
MEAN_MOTION    = 15.56755614
ECCENTRICITY   = .0001029
INCLINATION    = 43.0002
RA_OF_ASC_NODE = 59.9581
ARG_OF_PERICENTER = 255.5232
MEAN_ANOMALY   = 264.2848

EPHEMERIS_TYPE = 0
CLASSIFICATION_TYPE = U
NORAD_CAT_ID   = 66579
ELEMENT_SET_NO = 999
REV_AT_EPOCH   = 608
BSTAR          = -.30398E-1
MEAN_MOTION_DOT = -.1962894E-1
MEAN_MOTION_DDOT = 0

CCSDS_OMM_VERS = 2.0
CREATION_DATE  = 
ORIGINATOR     = 

OBJECT_NAME    = STARLINK-35872
OBJECT_ID      = 2025-268Z
CENTER_NAME    = EARTH
REF_FRAME      = TEME
TIME_SYSTEM    = UTC
MEAN_ELEMENT_THEORY = SGP/SGP4

EPOCH          = 2025-12-23T04:00:01.998720
MEAN_MOTION    = 15.56718651
ECCENTRICITY   = .0001107
INCLINATION    = 43.0002
RA_OF_ASC_NODE = 59.9540
ARG_OF_PERICENTER = 256.7032
MEAN_ANOMALY   = 264.9997

EPHEMERIS_TYPE = 0
CLASSIFICATION_TYPE = U
NORAD_CAT_ID   = 66580
ELEMENT_SET_NO = 999
REV_AT_EPOCH   = 608
BSTAR          = -.1289E-1
MEAN_MOTION_DOT = -.863539E-2
MEAN_MOTION_DDOT = 0

CCSDS_OMM_VERS = 2.0
CREATION_DATE  = 
ORIGINATOR     = 

OBJECT_NAME    = STARLINK-35744
OBJECT_ID      = 2025-268AA
CENTER_NAME    = EARTH
REF_FRAME      = TEME
TIME_SYSTEM    = UTC
MEAN_ELEMENT_THEORY = SGP/SGP4

EPOCH          = 2025-12-23T04:00:01.998720
MEAN_MOTION    = 15.56434039
ECCENTRICITY   = .0001303
INCLINATION    = 43.0003
RA_OF_ASC_NODE = 59.9481
ARG_OF_PERICENTER = 261.0861
MEAN_ANOMALY   = 262.5854

EPHEMERIS_TYPE = 0
CLASSIFICATION_TYPE = U
NORAD_CAT_ID   = 66581
ELEMENT_SET_NO = 999
REV_AT_EPOCH   = 607
BSTAR          = -.41841E-3
MEAN_MOTION_DOT = -.30629E-3
MEAN_MOTION_DDOT = 0

CCSDS_OMM_VERS = 2.0
CREATION_DATE  = 
ORIGINATOR     = 

OBJECT_NAME    = STARLINK-35746
OBJECT_ID      = 2025-268AB
CENTER_NAME    = EARTH
REF_FRAME      = TEME
TIME_SYSTEM    = UTC
MEAN_ELEMENT_THEORY = SGP/SGP4

EPOCH          = 2025-12-23T04:00:01.998720
MEAN_MOTION    = 15.56452403
ECCENTRICITY   = .0001445
INCLINATION    = 43.0002
RA_OF_ASC_NODE = 59.9432
ARG_OF_PERICENTER = 257.2055
MEAN_ANOMALY   = 268.3817

EPHEMERIS_TYPE = 0
CLASSIFICATION_TYPE = U
NORAD_CAT_ID   = 66582
ELEMENT_SET_NO = 999
REV_AT_EPOCH   = 608
BSTAR          = -.96161E-3
MEAN_MOTION_DOT = -.69626E-3
MEAN_MOTION_DDOT = 0

